{"type": "FeatureCollection", "name": "その他の私設保育施設", "crs": {"type":"name", "properties":{ "name":"urn:ogc:def:crs:EPSG::4326" }},"features": [ {"type": "Feature", "geometry": {"type":"Point","coordinates":[139.490951109,35.33651013]}, "properties": {"gid":"0","名称":"神奈川インターナショナルスクール","施設種別":"その他の私設保育施設","所在地":"神奈川県藤沢市南藤沢17-1","所在地2":"101","電話番号":" 045-841-3928","ホームページ":" https:\/\/www.kischool.com\/","開始日時":" ","終了日時":" ","作成日時":"2024\/09\/06 18:01:59","更新日時":"2024\/09\/06 18:02:13"}},{"type": "Feature", "geometry": {"type":"Point","coordinates":[139.461522,35.335525]}, "properties": {"gid":"1","名称":"保育室　ひろば辻堂","施設種別":"その他の私設保育施設","所在地":"神奈川県藤沢市辻堂元町6-3-9","所在地2":" 福祉クラブ生協　みのり藤沢内","電話番号":" 0466-90-5314","ホームページ":" https:\/\/hotspace9822.amebaownd.com\/","開始日時":" ","終了日時":" ","作成日時":"2024\/09\/06 18:01:59","更新日時":"2024\/09\/06 18:02:14"}},{"type": "Feature", "geometry": {"type":"Point","coordinates":[139.441728714,35.326480568]}, "properties": {"gid":"2","名称":"のぞみチャイルド・ケア・センター","施設種別":"その他の私設保育施設","所在地":"神奈川県藤沢市辻堂6-26-46","所在地2":" ","電話番号":" 0466-34-5990","ホームページ":" http:\/\/www.nozomi-kg.ed.jp\/nyuen\/nyuen7-1.html","開始日時":" ","終了日時":" ","作成日時":"2024\/09\/06 18:01:59","更新日時":"2024\/09\/06 18:02:15"}},{"type": "Feature", "geometry": {"type":"Point","coordinates":[139.447535288,35.34042283]}, "properties": {"gid":"3","名称":"Nobile Kids湘南","施設種別":"その他の私設保育施設","所在地":"神奈川県藤沢市辻堂神台2-2-2","所在地2":" ココテラス湘南1階","電話番号":" 0466-36-2662","ホームページ":" https:\/\/nobilekids.com\/","開始日時":" ","終了日時":" ","作成日時":"2024\/09\/06 18:01:59","更新日時":"2024\/09\/06 18:02:16"}},{"type": "Feature", "geometry": {"type":"Point","coordinates":[139.492837965,35.314424085]}, "properties": {"gid":"4","名称":"めじろ保育園","施設種別":"その他の私設保育施設","所在地":"神奈川県藤沢市片瀬目白山1-7","所在地2":" ","電話番号":" 0467-81-3357","ホームページ":" ","開始日時":" ","終了日時":" ","作成日時":"2024\/09\/06 18:01:59","更新日時":"2024\/09\/06 18:02:17"}},{"type": "Feature", "geometry": {"type":"Point","coordinates":[139.454091832,35.36230006]}, "properties": {"gid":"5","名称":"AICバイリンガル幼稚舎　湘南校","施設種別":"その他の私設保育施設","所在地":"神奈川県藤沢市大庭5224-6　ベストライフ藤沢ビル2F","所在地2":" ","電話番号":" 0466-47-7919","ホームページ":" ","開始日時":" ","終了日時":" ","作成日時":"2024\/09\/06 18:01:59","更新日時":"2024\/09\/06 18:02:19"}} ]}
