{"type": "FeatureCollection", "name": "公立認可保育所", "crs": {"type":"name", "properties":{ "name":"urn:ogc:def:crs:EPSG::4326" }},"features": [ {"type": "Feature", "geometry": {"type":"Point","coordinates":[139.488223313,35.334816307]}, "properties": {"gid":"0","名称":"藤沢保育園","施設種別":"公立認可保育所","所在地":"神奈川県藤沢市鵠沼石上1-11-5","所在地2":" ","電話番号":" 0466-22-6889","ホームページ":" https:\/\/www.city.fujisawa.kanagawa.jp\/fuji-ho\/kenko\/kosodate\/hoikuen\/koritsu\/fujisawa\/index.html","開始日時":" ","終了日時":" ","作成日時":"2024\/09\/06 17:35:30","更新日時":"2024\/09\/06 17:35:50"}},{"type": "Feature", "geometry": {"type":"Point","coordinates":[139.452466857,35.343682263]}, "properties": {"gid":"1","名称":"辻堂保育園","施設種別":"公立認可保育所","所在地":"神奈川県藤沢市羽鳥1-1-70","所在地2":" ","電話番号":" 0466-36-6695","ホームページ":" https:\/\/www.city.fujisawa.kanagawa.jp\/tsuji-ho\/kenko\/kosodate\/hoikuen\/koritsu\/tsujido\/index.html","開始日時":" ","終了日時":" ","作成日時":"2024\/09\/06 17:35:30","更新日時":"2024\/10\/01 13:54:58"}},{"type": "Feature", "geometry": {"type":"Point","coordinates":[139.471701514,35.328226882]}, "properties": {"gid":"2","名称":"鵠沼保育園","施設種別":"公立認可保育所","所在地":"神奈川県藤沢市本鵠沼3-16-25","所在地2":" ","電話番号":" 0466-36-4594","ホームページ":" https:\/\/www.city.fujisawa.kanagawa.jp\/kuge-ho\/kenko\/kosodate\/hoikuen\/koritsu\/kugenuma\/index.html","開始日時":" ","終了日時":" ","作成日時":"2024\/09\/06 17:35:30","更新日時":"2024\/09\/06 17:35:52"}},{"type": "Feature", "geometry": {"type":"Point","coordinates":[139.49297178,35.345120328]}, "properties": {"gid":"3","名称":"藤が岡保育園","施設種別":"公立認可保育所","所在地":"神奈川県藤沢市藤が岡2-3-5","所在地2":" ","電話番号":" 0466-22-2794","ホームページ":" https:\/\/www.city.fujisawa.kanagawa.jp\/fujig-ho\/kenko\/kosodate\/hoikuen\/koritsu\/fujigaoka\/index.html","開始日時":" ","終了日時":" ","作成日時":"2024\/09\/06 17:35:30","更新日時":"2024\/09\/30 15:15:17"}},{"type": "Feature", "geometry": {"type":"Point","coordinates":[139.471082575,35.364587058]}, "properties": {"gid":"4","名称":"善行保育園","施設種別":"公立認可保育所","所在地":"神奈川県藤沢市善行2-18-1","所在地2":" ","電話番号":" 0466-81-6169","ホームページ":" https:\/\/www.city.fujisawa.kanagawa.jp\/zen-ho\/kenko\/kosodate\/hoikuen\/koritsu\/zengyo\/index.html","開始日時":" ","終了日時":" ","作成日時":"2024\/09\/06 17:35:30","更新日時":"2024\/09\/13 16:45:21"}},{"type": "Feature", "geometry": {"type":"Point","coordinates":[139.460482345,35.350538724]}, "properties": {"gid":"5","名称":"明治保育園","施設種別":"公立認可保育所","所在地":"神奈川県藤沢市城南3-6-18","所在地2":" ","電話番号":" 0466-36-1221","ホームページ":" https:\/\/www.city.fujisawa.kanagawa.jp\/meiji-ho\/kenko\/kosodate\/hoikuen\/koritsu\/meji\/index.html","開始日時":" ","終了日時":" ","作成日時":"2024\/09\/06 17:35:30","更新日時":"2024\/09\/13 16:45:21"}},{"type": "Feature", "geometry": {"type":"Point","coordinates":[139.463494111,35.317984089]}, "properties": {"gid":"6","名称":"浜見保育園","施設種別":"公立認可保育所","所在地":"神奈川県藤沢市鵠沼海岸4-7-34","所在地2":" ","電話番号":" 0466-34-4545","ホームページ":" https:\/\/www.city.fujisawa.kanagawa.jp\/hama-ho\/kenko\/kosodate\/hoikuen\/koritsu\/hamami\/index.html","開始日時":" ","終了日時":" ","作成日時":"2024\/09\/06 17:35:30","更新日時":"2024\/09\/13 16:45:22"}},{"type": "Feature", "geometry": {"type":"Point","coordinates":[139.470762611,35.400902252]}, "properties": {"gid":"7","名称":"湘南台保育園","施設種別":"公立認可保育所","所在地":"神奈川県藤沢市湘南台6-31-6","所在地2":" ","電話番号":" 0466-43-3830","ホームページ":" https:\/\/www.city.fujisawa.kanagawa.jp\/syou-ho\/kenko\/kosodate\/hoikuen\/koritsu\/shonandai\/index.html","開始日時":" ","終了日時":" ","作成日時":"2024\/09\/06 17:35:30","更新日時":"2024\/09\/13 16:45:24"}},{"type": "Feature", "geometry": {"type":"Point","coordinates":[139.471455544,35.364548071]}, "properties": {"gid":"8","名称":"善行乳児保育園","施設種別":"公立認可保育所","所在地":"神奈川県藤沢市善行2-18-5","所在地2":" ","電話番号":" 0466-82-0521","ホームページ":" https:\/\/www.city.fujisawa.kanagawa.jp\/zenny-ho\/kenko\/kosodate\/hoikuen\/koritsu\/zengyo-nyuji\/index.html","開始日時":" ","終了日時":" ","作成日時":"2024\/09\/06 17:35:30","更新日時":"2024\/09\/13 16:45:24"}},{"type": "Feature", "geometry": {"type":"Point","coordinates":[139.497270646,35.350122442]}, "properties": {"gid":"9","名称":"柄沢保育園","施設種別":"公立認可保育所","所在地":"神奈川県藤沢市柄沢1-6-5","所在地2":" ","電話番号":" 0466-26-1355","ホームページ":" https:\/\/www.city.fujisawa.kanagawa.jp\/kara-ho\/kenko\/kosodate\/hoikuen\/koritsu\/karasawa\/index.html","開始日時":" ","終了日時":" ","作成日時":"2024\/09\/06 17:35:30","更新日時":"2024\/09\/13 16:45:25"}},{"type": "Feature", "geometry": {"type":"Point","coordinates":[139.463345161,35.402582898]}, "properties": {"gid":"10","名称":"しぶやがはら保育園","施設種別":"公立認可保育所","所在地":"神奈川県藤沢市湘南台4-30-14","所在地2":" ","電話番号":" 0466-44-4855","ホームページ":" https:\/\/www.city.fujisawa.kanagawa.jp\/sibu-ho\/kenko\/kosodate\/hoikuen\/koritsu\/shibuyagahara\/index.html","開始日時":" ","終了日時":" ","作成日時":"2024\/09\/06 17:35:30","更新日時":"2024\/09\/13 16:45:26"}},{"type": "Feature", "geometry": {"type":"Point","coordinates":[139.466532902,35.33882839]}, "properties": {"gid":"11","名称":"高山保育園","施設種別":"公立認可保育所","所在地":"神奈川県藤沢市辻堂新町4-2-3","所在地2":" ","電話番号":" 0466-33-1022","ホームページ":" https:\/\/www.city.fujisawa.kanagawa.jp\/takay-ho\/kenko\/kosodate\/hoikuen\/koritsu\/takayama\/index.html","開始日時":" ","終了日時":" ","作成日時":"2024\/09\/06 17:35:30","更新日時":"2024\/09\/13 16:45:27"}},{"type": "Feature", "geometry": {"type":"Point","coordinates":[139.484317604,35.372145305]}, "properties": {"gid":"12","名称":"またの保育園","施設種別":"公立認可保育所","所在地":"神奈川県藤沢市西俣野1962-2","所在地2":" ","電話番号":" 0466-81-8727","ホームページ":" https:\/\/www.city.fujisawa.kanagawa.jp\/mata-ho\/kenko\/kosodate\/hoikuen\/koritsu\/matano\/index.html","開始日時":" ","終了日時":" ","作成日時":"2024\/09\/06 17:35:30","更新日時":"2024\/09\/13 16:45:29"}},{"type": "Feature", "geometry": {"type":"Point","coordinates":[139.446700368,35.358746391]}, "properties": {"gid":"13","名称":"小糸保育園","施設種別":"公立認可保育所","所在地":"神奈川県藤沢市大庭5103-3","所在地2":" ","電話番号":" 0466-87-9121","ホームページ":" https:\/\/www.city.fujisawa.kanagawa.jp\/koito-ho\/kenko\/kosodate\/hoikuen\/koritsu\/koito\/index.html","開始日時":" ","終了日時":" ","作成日時":"2024\/09\/06 17:35:30","更新日時":"2024\/09\/13 16:45:29"}} ]}
