{"type": "FeatureCollection", "name": "家庭的保育事業", "crs": {"type":"name", "properties":{ "name":"urn:ogc:def:crs:EPSG::4326" }},"features": [ {"type": "Feature", "geometry": {"type":"Point","coordinates":[139.461974814,35.391883086]}, "properties": {"gid":"0","名称":"ちゅうりっぷ保育室","施設種別":"家庭的保育事業","所在地":"神奈川藤沢市湘南台3-13-10","所在地2":" グランレスパス114","電話番号":" 0466-61-5680","ホームページ":" https:\/\/tulip-hoiku.net\/","開始日時":" ","終了日時":" ","作成日時":"2024\/09\/06 17:56:56","更新日時":"2024\/10\/02 9:17:41"}},{"type": "Feature", "geometry": {"type":"Point","coordinates":[139.461514296,35.420451507]}, "properties": {"gid":"1","名称":"さくら保育室","施設種別":"家庭的保育事業","所在地":"神奈川県藤沢市長後1432-46","所在地2":" ","電話番号":" 0466-44-2105","ホームページ":" https:\/\/www.city.fujisawa.kanagawa.jp\/hoiku\/kenko\/kosodate\/hoikuen\/kate-jigyo\/sakura.html","開始日時":" ","終了日時":" ","作成日時":"2024\/09\/06 17:56:56","更新日時":"2024\/09\/06 17:57:17"}} ]}
