{"type": "FeatureCollection", "name": "小規模保育事業", "crs": {"type":"name", "properties":{ "name":"urn:ogc:def:crs:EPSG::4326" }},"features": [ {"type": "Feature", "geometry": {"type":"Point","coordinates":[139.464521076,35.399327347]}, "properties": {"gid":"0","名称":"どれみちゃいるど保育室","施設種別":"小規模保育事業","所在地":"神奈川県藤沢市湘南台4-5-1","所在地2":" プレジャ湘南台2F","電話番号":" 0466-43-0194","ホームページ":" https:\/\/www.doremi-child.net\/facilities\/hoikushitsu","開始日時":" ","終了日時":" ","作成日時":"2024\/09\/06 17:53:32","更新日時":"2024\/09\/06 17:53:57"}},{"type": "Feature", "geometry": {"type":"Point","coordinates":[139.469921666,35.396939758]}, "properties": {"gid":"1","名称":"湘南台よつば保育園","施設種別":"小規模保育事業","所在地":"神奈川県藤沢市湘南台1-9-2","所在地2":" NKビルII102","電話番号":" 0466-41-3788","ホームページ":" https:\/\/www.yotsubahoikuen.com\/?page_id=487","開始日時":" ","終了日時":" ","作成日時":"2024\/09\/06 17:53:32","更新日時":"2024\/09\/06 17:53:58"}},{"type": "Feature", "geometry": {"type":"Point","coordinates":[139.474299483,35.363765516]}, "properties": {"gid":"2","名称":"保育ルーム　フロール","施設種別":"小規模保育事業","所在地":"神奈川県藤沢市善行7-6-10","所在地2":" タコマール齋ビル1F","電話番号":" 0466-90-0466","ホームページ":" https:\/\/www.hoikuroom-flor.com\/","開始日時":" ","終了日時":" ","作成日時":"2024\/09\/06 17:53:32","更新日時":"2024\/10\/02 9:32:33"}},{"type": "Feature", "geometry": {"type":"Point","coordinates":[139.488664276,35.332890567]}, "properties": {"gid":"3","名称":"マシュマロ保育園","施設種別":"小規模保育事業","所在地":"神奈川県藤沢市鵠沼石上2-8-5","所在地2":" ","電話番号":" 0466-55-5560","ホームページ":" https:\/\/harmonie-hoikuen.jp\/marshmallow\/","開始日時":" ","終了日時":" ","作成日時":"2024\/09\/06 17:53:32","更新日時":"2024\/09\/06 17:54:01"}},{"type": "Feature", "geometry": {"type":"Point","coordinates":[139.486268447,35.336315078]}, "properties": {"gid":"4","名称":"藤沢よつば保育園第一","施設種別":"小規模保育事業","所在地":"神奈川県藤沢市鵠沼橘1-1-7","所在地2":" 門倉ビルIII　2階","電話番号":" 0466-47-8812","ホームページ":" https:\/\/www.yotsubahoikuen.com\/","開始日時":" ","終了日時":" ","作成日時":"2024\/09\/06 17:53:32","更新日時":"2024\/09\/06 17:54:01"}},{"type": "Feature", "geometry": {"type":"Point","coordinates":[139.486268447,35.336315078]}, "properties": {"gid":"5","名称":"藤沢よつば保育園第二","施設種別":"小規模保育事業","所在地":"神奈川県藤沢市鵠沼橘1-1-7","所在地2":" 門倉ビルIII　2階","電話番号":" 0466-47-8812","ホームページ":" https:\/\/www.yotsubahoikuen.com\/?page_id=435","開始日時":" ","終了日時":" ","作成日時":"2024\/09\/06 17:53:32","更新日時":"2024\/09\/06 17:54:02"}},{"type": "Feature", "geometry": {"type":"Point","coordinates":[139.490459139,35.340497599]}, "properties": {"gid":"6","名称":"湘南クレヨン保育園","施設種別":"小規模保育事業","所在地":"神奈川県藤沢市朝日町11-3","所在地2":" ","電話番号":" 0466-55-1419","ホームページ":" http:\/\/www.crayon-hoiku.jp\/","開始日時":" ","終了日時":" ","作成日時":"2024\/09\/06 17:53:32","更新日時":"2024\/09\/06 17:54:03"}},{"type": "Feature", "geometry": {"type":"Point","coordinates":[139.466828905,35.394186067]}, "properties": {"gid":"7","名称":"どれみチャイルドくらぶ そら","施設種別":"小規模保育事業","所在地":"神奈川県藤沢市湘南台2-18-9","所在地2":" TOMOS湘南台202・203","電話番号":" 0466-44-0194","ホームページ":" https:\/\/www.doremi-child.net\/facilities\/clubsora","開始日時":" ","終了日時":" ","作成日時":"2024\/09\/06 17:53:32","更新日時":"2024\/09\/06 17:54:05"}},{"type": "Feature", "geometry": {"type":"Point","coordinates":[139.466828905,35.394186067]}, "properties": {"gid":"8","名称":"どれみチャイルドくらぶ にじ","施設種別":"小規模保育事業","所在地":"神奈川県藤沢市湘南台2-18-9","所在地2":" TOMOS湘南台1F","電話番号":" 0466-44-0194","ホームページ":" https:\/\/www.doremi-child.net\/facilities\/club","開始日時":" ","終了日時":" ","作成日時":"2024\/09\/06 17:53:32","更新日時":"2024\/09\/06 17:54:05"}},{"type": "Feature", "geometry": {"type":"Point","coordinates":[139.44796226,35.341011753]}, "properties": {"gid":"9","名称":"きっずワン メイト保育園","施設種別":"小規模保育事業","所在地":"神奈川県藤沢市辻堂神台2-2-44","所在地2":" エルム湘南3F","電話番号":" 0466-54-8835","ホームページ":" https:\/\/kidsone.jp\/","開始日時":" ","終了日時":" ","作成日時":"2024\/09\/06 17:53:32","更新日時":"2024\/09\/06 17:54:07"}},{"type": "Feature", "geometry": {"type":"Point","coordinates":[139.44796226,35.341011753]}, "properties": {"gid":"10","名称":"きっずワン フレンズ保育園","施設種別":"小規模保育事業","所在地":"神奈川県藤沢市辻堂神台2-2-44","所在地2":" エルム湘南3F","電話番号":" 0466-54-8835","ホームページ":" https:\/\/kidsone.jp\/","開始日時":" ","終了日時":" ","作成日時":"2024\/09\/06 17:53:32","更新日時":"2024\/09\/06 17:54:07"}},{"type": "Feature", "geometry": {"type":"Point","coordinates":[139.485060537,35.335111213]}, "properties": {"gid":"11","名称":"さくらうみ保育園 鵠沼橘園","施設種別":"小規模保育事業","所在地":"神奈川県藤沢市鵠沼橘1-3-8","所在地2":" グレイシャスK鵠沼1F","電話番号":" 0466-47-6364","ホームページ":" https:\/\/sakuraumi.com\/","開始日時":" ","終了日時":" ","作成日時":"2024\/09\/06 17:53:32","更新日時":"2024\/09\/06 17:54:09"}},{"type": "Feature", "geometry": {"type":"Point","coordinates":[139.493033956,35.347511715]}, "properties": {"gid":"12","名称":"ブライトキッズ大鋸保育園","施設種別":"小規模保育事業","所在地":"神奈川県藤沢市大鋸3-3-27","所在地2":" 山王プラザ101","電話番号":" 0466-53-8381","ホームページ":" https:\/\/www.bright-kids.jp\/","開始日時":" ","終了日時":" ","作成日時":"2024\/09\/06 17:53:32","更新日時":"2024\/09\/06 17:54:09"}},{"type": "Feature", "geometry": {"type":"Point","coordinates":[139.447888974,35.339968518]}, "properties": {"gid":"13","名称":"キッズ大陸mini辻堂園","施設種別":"小規模保育事業","所在地":"神奈川県藤沢市辻堂神台2-2-1","所在地2":" アイクロス湘南1F","電話番号":" 0466-31-0530","ホームページ":" https:\/\/www.pocket-land.jp\/tsujido-mini\/","開始日時":" ","終了日時":" ","作成日時":"2024\/09\/06 17:53:32","更新日時":"2024\/10\/02 10:09:46"}},{"type": "Feature", "geometry": {"type":"Point","coordinates":[139.470215667,35.331171449]}, "properties": {"gid":"14","名称":"ニチイキッズ本鵠沼保育園","施設種別":"小規模保育事業","所在地":"神奈川県藤沢市本鵠沼4-7-9","所在地2":" クリエート湘南第7ビル2F","電話番号":" 0466-30-6055","ホームページ":" https:\/\/www.nichiikids.net\/nursery\/other\/honkugenuma\/index.html","開始日時":" ","終了日時":" ","作成日時":"2024\/09\/06 17:53:32","更新日時":"2024\/10\/02 11:05:13"}},{"type": "Feature", "geometry": {"type":"Point","coordinates":[139.446046408,35.365593474]}, "properties": {"gid":"15","名称":"大庭あにまる保育園","施設種別":"小規模保育事業","所在地":"神奈川県藤沢市大庭5404-7","所在地2":" 湘南エスパス3F","電話番号":" 0466-41-9735","ホームページ":" https:\/\/www.animal-hoikuen.net\/oba\/index.html","開始日時":" ","終了日時":" ","作成日時":"2024\/09\/06 17:53:32","更新日時":"2024\/09\/06 17:54:13"}},{"type": "Feature", "geometry": {"type":"Point","coordinates":[139.484448957,35.331527722]}, "properties": {"gid":"16","名称":"サクラフェリーチェ保育園　鵠沼桜が岡","施設種別":"小規模保育事業","所在地":"神奈川県藤沢市鵠沼桜が岡1-6-5","所在地2":" ","電話番号":" 0466-28-0123","ホームページ":" https:\/\/sacrafelice.wix.com\/hoiku","開始日時":" ","終了日時":" ","作成日時":"2024\/09\/06 17:53:32","更新日時":"2024\/10\/01 10:58:08"}},{"type": "Feature", "geometry": {"type":"Point","coordinates":[139.44995712,35.337342282]}, "properties": {"gid":"17","名称":"ブリーズキッズ保育園辻堂駅前園","施設種別":"小規模保育事業","所在地":"神奈川県藤沢市辻堂新町1丁目2番21号","所在地2":" 新町GⅡビル203号","電話番号":" 0466-52-6036","ホームページ":" https:\/\/breeze-kids.jp\/","開始日時":" ","終了日時":" ","作成日時":"2024\/09\/06 17:53:32","更新日時":"2024\/09\/06 17:54:15"}},{"type": "Feature", "geometry": {"type":"Point","coordinates":[139.450916046,35.338475155]}, "properties": {"gid":"18","名称":"ブリーズキッズ保育園辻堂新町園","施設種別":"小規模保育事業","所在地":"神奈川県藤沢市辻堂新町1-4-10","所在地2":" ","電話番号":" 0466-54-9353","ホームページ":" https:\/\/breeze-kids.jp\/","開始日時":" ","終了日時":" ","作成日時":"2024\/09\/06 17:53:32","更新日時":"2024\/09\/06 17:54:16"}},{"type": "Feature", "geometry": {"type":"Point","coordinates":[139.451576989,35.335644533]}, "properties": {"gid":"19","名称":"ぽとふ藤沢","施設種別":"小規模保育事業","所在地":"神奈川県藤沢市辻堂元町1-11-3","所在地2":" 山口ビル1階","電話番号":" 0466-90-4812","ホームページ":" https:\/\/potoph.jp","開始日時":" ","終了日時":" ","作成日時":"2024\/09\/06 17:53:32","更新日時":"2024\/09\/06 17:54:17"}},{"type": "Feature", "geometry": {"type":"Point","coordinates":[139.488068698,35.341290883]}, "properties": {"gid":"20","名称":"グリーンキッズ湘南ミナパーク","施設種別":"小規模保育事業","所在地":"神奈川藤沢市藤沢607-1","所在地2":" 藤沢商工会館ミナパーク1階","電話番号":" 0466-53-7444","ホームページ":" https:\/\/www.kijyu.or.jp\/nursery\/gk-minapark\/","開始日時":" ","終了日時":" ","作成日時":"2024\/09\/06 17:53:32","更新日時":"2024\/09\/06 17:55:16"}},{"type": "Feature", "geometry": {"type":"Point","coordinates":[139.469377711,35.398022722]}, "properties": {"gid":"21","名称":"湘南台よつば保育園","施設種別":"小規模保育事業","所在地":"神奈川藤沢市湘南台１－９－２","所在地2":" ＮＫビルⅡ　１０２","電話番号":" ０４６６－４１－３７８８","ホームページ":" https:\/\/www.yotsubahoikuen.com\/","開始日時":" ","終了日時":" ","作成日時":"2024\/09\/06 17:53:32","更新日時":"2024\/09\/06 17:54:19"}} ]}
