{"type": "FeatureCollection", "name": "法人立認可保育所", "crs": {"type":"name", "properties":{ "name":"urn:ogc:def:crs:EPSG::4326" }},"features": [ {"type": "Feature", "geometry": {"type":"Point","coordinates":[139.445149467,35.331778927]}, "properties": {"gid":"0","名称":"わかたけ保育園","施設種別":"法人立認可保育所","所在地":"神奈川県藤沢市辻堂3-9-16","所在地2":" ","電話番号":" 0466-34-2417","ホームページ":" http:\/\/www.wakatake-hoikuen.ed.jp\/","開始日時":" ","終了日時":" ","作成日時":"2024\/09\/06 17:36:36","更新日時":"2024\/09\/06 17:36:54"}},{"type": "Feature", "geometry": {"type":"Point","coordinates":[139.4172547,35.404233798]}, "properties": {"gid":"1","名称":"御所見愛児園","施設種別":"法人立認可保育所","所在地":"神奈川県藤沢市用田569","所在地2":" ","電話番号":" 0466-48-1070","ホームページ":" https:\/\/issekikai.net\/goshomi","開始日時":" ","終了日時":" ","作成日時":"2024\/09\/06 17:36:36","更新日時":"2024\/10\/02 11:19:08"}},{"type": "Feature", "geometry": {"type":"Point","coordinates":[139.467990972,35.413369379]}, "properties": {"gid":"2","名称":"神愛保育園","施設種別":"法人立認可保育所","所在地":"神奈川県藤沢市高倉745","所在地2":" ","電話番号":" 0466-44-0065","ホームページ":" http:\/\/shionkai.main.jp\/policy.html","開始日時":" ","終了日時":" ","作成日時":"2024\/09\/06 17:36:36","更新日時":"2024\/10\/02 13:26:24"}},{"type": "Feature", "geometry": {"type":"Point","coordinates":[139.438781104,35.381595259]}, "properties": {"gid":"3","名称":"遠藤保育園","施設種別":"法人立認可保育所","所在地":"神奈川県藤沢市遠藤2469","所在地2":" ","電話番号":" 0466-87-3251","ホームページ":" http:\/\/www.mef.or.jp\/endou\/","開始日時":" ","終了日時":" ","作成日時":"2024\/09\/06 17:36:36","更新日時":"2024\/10\/02 11:21:02"}},{"type": "Feature", "geometry": {"type":"Point","coordinates":[139.46606595,35.380802828]}, "properties": {"gid":"4","名称":"六会保育園","施設種別":"法人立認可保育所","所在地":"神奈川県藤沢市亀井野914-5","所在地2":" ","電話番号":" 0466-81-5011","ホームページ":" http:\/\/www.mef.or.jp\/mutsuai\/","開始日時":" ","終了日時":" ","作成日時":"2024\/09\/06 17:36:36","更新日時":"2024\/09\/06 17:36:58"}},{"type": "Feature", "geometry": {"type":"Point","coordinates":[139.473140416,35.343161934]}, "properties": {"gid":"5","名称":"神明保育園","施設種別":"法人立認可保育所","所在地":"神奈川県藤沢市鵠沼神明5-5-32","所在地2":" ","電話番号":" 0466-25-3518","ホームページ":" http:\/\/www.shounanjidou.or.jp\/shinmei\/index.html","開始日時":" ","終了日時":" ","作成日時":"2024\/09\/06 17:36:36","更新日時":"2024\/09\/06 17:36:59"}},{"type": "Feature", "geometry": {"type":"Point","coordinates":[139.483858713,35.317426481]}, "properties": {"gid":"6","名称":"富士見保育園","施設種別":"法人立認可保育所","所在地":"神奈川県藤沢市片瀬5-13-15","所在地2":" ","電話番号":" 0466-25-7211","ホームページ":" http:\/\/fujimi.masumijidou.jp\/","開始日時":" ","終了日時":" ","作成日時":"2024\/09\/06 17:36:36","更新日時":"2024\/10\/01 11:02:01"}},{"type": "Feature", "geometry": {"type":"Point","coordinates":[139.489355231,35.33860282]}, "properties": {"gid":"7","名称":"白旗保育園","施設種別":"法人立認可保育所","所在地":"神奈川県藤沢市藤沢2-5-1","所在地2":" ","電話番号":" 0466-26-3440","ホームページ":" https:\/\/www.ans.co.jp\/u\/futaba-fukushikai\/shirahata\/","開始日時":" ","終了日時":" ","作成日時":"2024\/09\/06 17:36:36","更新日時":"2024\/09\/06 17:37:01"}},{"type": "Feature", "geometry": {"type":"Point","coordinates":[139.494557843,35.339338815]}, "properties": {"gid":"8","名称":"村岡保育園","施設種別":"法人立認可保育所","所在地":"神奈川県藤沢市大鋸1-2-15","所在地2":" ","電話番号":" 0466-26-6431","ホームページ":" https:\/\/www.muraoka-hoikuen.com\/","開始日時":" ","終了日時":" ","作成日時":"2024\/09\/06 17:36:36","更新日時":"2024\/10\/02 11:49:05"}},{"type": "Feature", "geometry": {"type":"Point","coordinates":[139.45804956,35.409009808]}, "properties": {"gid":"9","名称":"下土棚保育園","施設種別":"法人立認可保育所","所在地":"神奈川県藤沢市下土棚1014-1","所在地2":" ","電話番号":" 0466-44-2670","ホームページ":" https:\/\/www.ans.co.jp\/n\/shimotuchidana\/","開始日時":" ","終了日時":" ","作成日時":"2024\/09\/06 17:36:36","更新日時":"2024\/10\/02 13:29:02"}},{"type": "Feature", "geometry": {"type":"Point","coordinates":[139.464658031,35.327957782]}, "properties": {"gid":"10","名称":"二葉保育園","施設種別":"法人立認可保育所","所在地":"神奈川県藤沢市鵠沼海岸6-6-10","所在地2":" ","電話番号":" 0466-33-1823","ホームページ":" https:\/\/www.ans.co.jp\/u\/futaba-fukushikai\/futaba\/","開始日時":" ","終了日時":" ","作成日時":"2024\/09\/06 17:36:36","更新日時":"2024\/09\/06 17:37:04"}},{"type": "Feature", "geometry": {"type":"Point","coordinates":[139.476641179,35.384914476]}, "properties": {"gid":"11","名称":"亀井野保育園","施設種別":"法人立認可保育所","所在地":"神奈川県藤沢市亀井野4-4-2","所在地2":" ","電話番号":" 0466-82-1654","ホームページ":" https:\/\/aoifukusikai.com\/","開始日時":" ","終了日時":" ","作成日時":"2024\/09\/06 17:36:36","更新日時":"2024\/09\/06 17:37:05"}},{"type": "Feature", "geometry": {"type":"Point","coordinates":[139.442285699,35.373608343]}, "properties": {"gid":"12","名称":"大庭保育園","施設種別":"法人立認可保育所","所在地":"神奈川県藤沢市遠藤732-9","所在地2":" ","電話番号":" 0466-87-1795","ホームページ":" https:\/\/www.ans.co.jp\/n\/ooba\/index.html","開始日時":" ","終了日時":" ","作成日時":"2024\/09\/06 17:36:36","更新日時":"2024\/09\/06 17:37:06"}},{"type": "Feature", "geometry": {"type":"Point","coordinates":[139.449072522,35.369475021]}, "properties": {"gid":"13","名称":"五反田保育園","施設種別":"法人立認可保育所","所在地":"神奈川県藤沢市石川646-22","所在地2":" ","電話番号":" 0466-87-8764","ホームページ":" https:\/\/kosodate-web.com\/shonan\/gotanda\/","開始日時":" ","終了日時":" ","作成日時":"2024\/09\/06 17:36:36","更新日時":"2024\/10\/02 11:23:34"}},{"type": "Feature", "geometry": {"type":"Point","coordinates":[139.506983935,35.344204412]}, "properties": {"gid":"14","名称":"高谷保育園","施設種別":"法人立認可保育所","所在地":"神奈川県藤沢市村岡東3-413-1","所在地2":" ","電話番号":" 0466-26-2737","ホームページ":" https:\/\/takayah.com\/","開始日時":" ","終了日時":" ","作成日時":"2024\/09\/06 17:36:36","更新日時":"2024\/09\/06 17:37:08"}},{"type": "Feature", "geometry": {"type":"Point","coordinates":[139.458721493,35.395974688]}, "properties": {"gid":"15","名称":"ときわぎ保育園","施設種別":"法人立認可保育所","所在地":"神奈川県藤沢市円行2-3-1","所在地2":" ","電話番号":" 0466-45-3711","ホームページ":" http:\/\/www.tokiwagihoikuen.com\/","開始日時":" ","終了日時":" ","作成日時":"2024\/09\/06 17:36:36","更新日時":"2024\/09\/06 17:37:09"}},{"type": "Feature", "geometry": {"type":"Point","coordinates":[139.490722533,35.341174781]}, "properties": {"gid":"16","名称":"藤沢ベビーセンター","施設種別":"法人立認可保育所","所在地":"神奈川県藤沢市藤沢145","所在地2":" ","電話番号":" 0466-22-5245","ホームページ":" ","開始日時":" ","終了日時":" ","作成日時":"2024\/09\/06 17:36:36","更新日時":"2024\/10\/02 11:37:34"}},{"type": "Feature", "geometry": {"type":"Point","coordinates":[139.478647091,35.339452347]}, "properties": {"gid":"17","名称":"しんめいはじめ保育園","施設種別":"法人立認可保育所","所在地":"神奈川県藤沢市鵠沼神明1-4-21","所在地2":" NTTコム湘南藤沢ビル1F","電話番号":" 0466-54-9906","ホームページ":" https:\/\/www.ans.co.jp\/u\/fujisawa\/s_hajime.htm","開始日時":" ","終了日時":" ","作成日時":"2024\/09\/06 17:36:36","更新日時":"2024\/10\/02 13:20:49"}},{"type": "Feature", "geometry": {"type":"Point","coordinates":[139.465368008,35.395609863]}, "properties": {"gid":"18","名称":"すくすく保育園","施設種別":"法人立認可保育所","所在地":"神奈川県藤沢市湘南台2-13-8","所在地2":" 神中第5ビル2F","電話番号":" 0466-44-2945","ホームページ":" https:\/\/www.ans.co.jp\/u\/fujisawa\/sukusuku.htm","開始日時":" ","終了日時":" ","作成日時":"2024\/09\/06 17:36:36","更新日時":"2024\/09\/06 17:46:37"}},{"type": "Feature", "geometry": {"type":"Point","coordinates":[139.448898208,35.372854564]}, "properties": {"gid":"19","名称":"五反田つばさ保育園","施設種別":"法人立認可保育所","所在地":"神奈川県藤沢市石川3-30-12","所在地2":" ","電話番号":" 0466-86-6558","ホームページ":" https:\/\/kosodate-web.com\/shonan\/gotanda-bunen\/index.html","開始日時":" ","終了日時":" ","作成日時":"2024\/09\/06 17:36:36","更新日時":"2024\/09\/06 17:37:13"}},{"type": "Feature", "geometry": {"type":"Point","coordinates":[139.486773409,35.325516511]}, "properties": {"gid":"20","名称":"キディ鵠沼・藤沢","施設種別":"法人立認可保育所","所在地":"神奈川県藤沢市鵠沼藤が谷1-7-8","所在地2":" ","電話番号":" 0466-52-2345","ホームページ":" https:\/\/www.shinkoufukushikai.com\/hoiku\/ninka\/kiddie-kugenuma","開始日時":" ","終了日時":" ","作成日時":"2024\/09\/06 17:36:36","更新日時":"2024\/09\/06 17:37:14"}},{"type": "Feature", "geometry": {"type":"Point","coordinates":[139.486611416,35.331945653]}, "properties": {"gid":"21","名称":"石上保育園","施設種別":"法人立認可保育所","所在地":"神奈川県藤沢市鵠沼石上3-1-8","所在地2":" ","電話番号":" 0466-54-3311","ホームページ":" https:\/\/www.ans.co.jp\/u\/fujisawa\/ishigami.htm","開始日時":" ","終了日時":" ","作成日時":"2024\/09\/06 17:36:36","更新日時":"2024\/09\/06 17:37:15"}},{"type": "Feature", "geometry": {"type":"Point","coordinates":[139.462675195,35.394202997]}, "properties": {"gid":"22","名称":"保育園小さなほし","施設種別":"法人立認可保育所","所在地":"神奈川県藤沢市湘南台3-9-1","所在地2":" ","電話番号":" 0466-41-3660","ホームページ":" http:\/\/www.tosetsukai.com\/place_detail.php?area=hujisawa_hoiku&place=hoshi","開始日時":" ","終了日時":" ","作成日時":"2024\/09\/06 17:36:36","更新日時":"2024\/09\/06 17:37:16"}},{"type": "Feature", "geometry": {"type":"Point","coordinates":[139.459924404,35.366395619]}, "properties": {"gid":"23","名称":"グリーンキッズ湘南","施設種別":"法人立認可保育所","所在地":"神奈川県藤沢市大庭7990-1","所在地2":" ","電話番号":" 0466-81-7300","ホームページ":" http:\/\/119.245.211.206\/facilities_service\/nursery\/gk-shonan\/","開始日時":" ","終了日時":" ","作成日時":"2024\/09\/06 17:36:36","更新日時":"2024\/09\/06 17:37:17"}},{"type": "Feature", "geometry": {"type":"Point","coordinates":[139.448164251,35.339824925]}, "properties": {"gid":"24","名称":"キディ湘南C-X","施設種別":"法人立認可保育所","所在地":"神奈川県藤沢市辻堂神台1-3-39","所在地2":" オザワビル2・3F","電話番号":" 0466-30-3515","ホームページ":" https:\/\/www.shinkoufukushikai.com\/hoiku\/ninka\/kiddycx","開始日時":" ","終了日時":" ","作成日時":"2024\/09\/06 17:36:36","更新日時":"2024\/09\/06 17:46:51"}},{"type": "Feature", "geometry": {"type":"Point","coordinates":[139.48668641,35.325925452]}, "properties": {"gid":"25","名称":"キディ鵠沼・藤沢（分園）","施設種別":"法人立認可保育所","所在地":"神奈川県藤沢市鵠沼藤が谷1-8-16","所在地2":" ","電話番号":" 0466-52-2370","ホームページ":" https:\/\/www.shinkoufukushikai.com\/hoiku\/ninka\/kiddy-bunen","開始日時":" ","終了日時":" ","作成日時":"2024\/09\/06 17:36:36","更新日時":"2024\/09\/06 17:37:19"}},{"type": "Feature", "geometry": {"type":"Point","coordinates":[139.460979337,35.39399299]}, "properties": {"gid":"26","名称":"ときわぎ保育園(分園)","施設種別":"法人立認可保育所","所在地":"神奈川県藤沢市円行2-10-5","所在地2":" ","電話番号":" 0466-86-7111","ホームページ":" http:\/\/www.tokiwagihoikuen.com\/","開始日時":" ","終了日時":" ","作成日時":"2024\/09\/06 17:36:36","更新日時":"2024\/09\/06 17:37:20"}},{"type": "Feature", "geometry": {"type":"Point","coordinates":[139.501585015,35.35398702]}, "properties": {"gid":"27","名称":"湘南ひばり保育園","施設種別":"法人立認可保育所","所在地":"神奈川県藤沢市柄沢2-7-23","所在地2":" ","電話番号":" 0466-86-7766","ホームページ":" http:\/\/www.s-hibari.or.jp\/hoikuen\/","開始日時":" ","終了日時":" ","作成日時":"2024\/09\/06 17:36:36","更新日時":"2024\/10\/02 11:32:04"}},{"type": "Feature", "geometry": {"type":"Point","coordinates":[139.446283832,35.336105413]}, "properties": {"gid":"28","名称":"保育園アワーキッズ辻堂","施設種別":"法人立認可保育所","所在地":"神奈川県藤沢市辻堂2-7-7","所在地2":" ウィンディ湘南2F","電話番号":" 0466-86-5519","ホームページ":" https:\/\/ourkids.jp\/tsujido\/","開始日時":" ","終了日時":" ","作成日時":"2024\/09\/06 17:36:36","更新日時":"2024\/10\/02 10:33:46"}},{"type": "Feature", "geometry": {"type":"Point","coordinates":[139.48486656,35.338141807]}, "properties": {"gid":"29","名称":"藤沢もりのこ保育園","施設種別":"法人立認可保育所","所在地":"神奈川県藤沢市鵠沼花沢町1-12","所在地2":" 第五相澤ビル2F・3F","電話番号":" 0466-24-5000","ホームページ":" http:\/\/kodomonomori.co.jp\/fs\/","開始日時":" ","終了日時":" ","作成日時":"2024\/09\/06 17:36:36","更新日時":"2024\/09\/06 17:51:03"}},{"type": "Feature", "geometry": {"type":"Point","coordinates":[139.48266272,35.339332607]}, "properties": {"gid":"30","名称":"にじいろ保育園藤沢","施設種別":"法人立認可保育所","所在地":"神奈川県藤沢市藤沢989-4","所在地2":" ","電話番号":" 0466-54-8989","ホームページ":" https:\/\/www.like-kd.co.jp\/establishment\/nijiiro\/HPfujisawa","開始日時":" ","終了日時":" ","作成日時":"2024\/09\/06 17:36:36","更新日時":"2024\/09\/06 17:51:04"}},{"type": "Feature", "geometry": {"type":"Point","coordinates":[139.469926563,35.34337251]}, "properties": {"gid":"31","名称":"にじいろ保育園鵠沼神明","施設種別":"法人立認可保育所","所在地":"神奈川県藤沢市鵠沼神明5-8-12","所在地2":" ","電話番号":" 0466-52-4601","ホームページ":" https:\/\/www.like-kd.co.jp\/establishment\/nijiiro\/HPkugenumashinmei","開始日時":" ","終了日時":" ","作成日時":"2024\/09\/06 17:36:36","更新日時":"2024\/10\/02 13:19:01"}},{"type": "Feature", "geometry": {"type":"Point","coordinates":[139.486490851,35.340410544]}, "properties": {"gid":"32","名称":"あいまーる保育園","施設種別":"法人立認可保育所","所在地":"神奈川県藤沢市藤沢551-1","所在地2":" 日進ビル2階","電話番号":" 0466-52-4150","ホームページ":" https:\/\/harmonie-hoikuen.jp\/aimaru-hoikuen\/","開始日時":" ","終了日時":" ","作成日時":"2024\/09\/06 17:36:36","更新日時":"2024\/10\/02 11:15:57"}},{"type": "Feature", "geometry": {"type":"Point","coordinates":[139.489605201,35.335925184]}, "properties": {"gid":"33","名称":"ゆめの森保育園","施設種別":"法人立認可保育所","所在地":"神奈川県藤沢市鵠沼石上1-5-9","所在地2":" メガサンエスビル2F","電話番号":" 0466-50-2896","ホームページ":" http:\/\/hoikuen.yume-mori.com\/","開始日時":" ","終了日時":" ","作成日時":"2024\/09\/06 17:36:36","更新日時":"2024\/09\/06 17:51:07"}},{"type": "Feature", "geometry": {"type":"Point","coordinates":[139.475905211,35.329332812]}, "properties": {"gid":"34","名称":"にじいろ保育園本鵠沼","施設種別":"法人立認可保育所","所在地":"神奈川県藤沢市鵠沼桜が岡3-4-16","所在地2":" ","電話番号":" 0466-41-9100","ホームページ":" https:\/\/www.like-kd.co.jp\/establishment\/nijiiro\/HPhonkugenuma","開始日時":" ","終了日時":" ","作成日時":"2024\/09\/06 17:36:36","更新日時":"2024\/09\/06 17:51:08"}},{"type": "Feature", "geometry": {"type":"Point","coordinates":[139.467243863,35.391551426]}, "properties": {"gid":"35","名称":"湘南台南保育園","施設種別":"法人立認可保育所","所在地":"神奈川県藤沢市湘南台2-31-11","所在地2":" ","電話番号":" 0466-53-8014","ホームページ":" https:\/\/www.ans.co.jp\/u\/fujisawa\/s_minami.htm","開始日時":" ","終了日時":" ","作成日時":"2024\/09\/06 17:36:36","更新日時":"2024\/09\/06 17:51:09"}},{"type": "Feature", "geometry": {"type":"Point","coordinates":[139.470237623,35.39540122]}, "properties": {"gid":"36","名称":"湘南台もりのこ保育園","施設種別":"法人立認可保育所","所在地":"神奈川県藤沢市湘南台1-21-10","所在地2":" ","電話番号":" 0466-41-5355","ホームページ":" http:\/\/kodomonomori.co.jp\/sy\/","開始日時":" ","終了日時":" ","作成日時":"2024\/09\/06 17:36:36","更新日時":"2024\/10\/02 13:33:37"}},{"type": "Feature", "geometry": {"type":"Point","coordinates":[139.445648445,35.363334764]}, "properties": {"gid":"37","名称":"グリーンキッズ湘南ライフタウン","施設種別":"法人立認可保育所","所在地":"神奈川県藤沢市大庭5406-14","所在地2":" ","電話番号":" 0466-53-8544","ホームページ":" https:\/\/www.kijyu.or.jp\/nursery\/gk-lifetown\/","開始日時":" ","終了日時":" ","作成日時":"2024\/09\/06 17:36:36","更新日時":"2024\/09\/06 17:51:11"}},{"type": "Feature", "geometry": {"type":"Point","coordinates":[139.448205766,35.336066013]}, "properties": {"gid":"38","名称":"保育園あんふぁん","施設種別":"法人立認可保育所","所在地":"神奈川県藤沢市辻堂1-4-2","所在地2":" I.Fビル2・3F","電話番号":" 0466-53-8558","ホームページ":" http:\/\/enfants.co.jp\/","開始日時":" ","終了日時":" ","作成日時":"2024\/09\/06 17:36:36","更新日時":"2024\/10\/02 10:29:28"}},{"type": "Feature", "geometry": {"type":"Point","coordinates":[139.491705049,35.335918228]}, "properties": {"gid":"39","名称":"保育園アワーキッズ南藤沢","施設種別":"法人立認可保育所","所在地":"神奈川県藤沢市南藤沢17-10","所在地2":" グレイシャスK湘南1・2F","電話番号":" 0466-53-9530","ホームページ":" https:\/\/ourkids.jp\/mfuji\/","開始日時":" ","終了日時":" ","作成日時":"2024\/09\/06 17:36:36","更新日時":"2024\/09\/06 17:51:13"}},{"type": "Feature", "geometry": {"type":"Point","coordinates":[139.468448767,35.368115548]}, "properties": {"gid":"40","名称":"善行あさぎ台保育園","施設種別":"法人立認可保育所","所在地":"神奈川県藤沢市善行3-14-7","所在地2":" ","電話番号":" 0466-47-9104","ホームページ":" http:\/\/www.tomoni.or.jp\/asagidai\/","開始日時":" ","終了日時":" ","作成日時":"2024\/09\/06 17:36:36","更新日時":"2024\/09\/06 17:51:14"}},{"type": "Feature", "geometry": {"type":"Point","coordinates":[139.474023365,35.362761361]}, "properties": {"gid":"41","名称":"善行あにまる保育園","施設種別":"法人立認可保育所","所在地":"神奈川県藤沢市善行7-3-5","所在地2":" ブランシェ善行1F","電話番号":" 0466-84-2358","ホームページ":" http:\/\/zengyo-animal.jp\/","開始日時":" ","終了日時":" ","作成日時":"2024\/09\/06 17:36:36","更新日時":"2024\/09\/06 17:51:15"}},{"type": "Feature", "geometry": {"type":"Point","coordinates":[139.441749658,35.324182916]}, "properties": {"gid":"42","名称":"たかすな保育園","施設種別":"法人立認可保育所","所在地":"神奈川県藤沢市辻堂西海岸2-12-1","所在地2":" ","電話番号":" 0466-86-7676","ホームページ":" https:\/\/yukarifukushikai.or.jp\/takasuna\/","開始日時":" ","終了日時":" ","作成日時":"2024\/09\/06 17:36:36","更新日時":"2024\/10\/02 10:38:28"}},{"type": "Feature", "geometry": {"type":"Point","coordinates":[139.468570333,35.332817214]}, "properties": {"gid":"43","名称":"鵠沼げんきっず保育園","施設種別":"法人立認可保育所","所在地":"神奈川県藤沢市本鵠沼4-9-3","所在地2":" ","電話番号":" 0466-35-6655","ホームページ":" https:\/\/fuku-mirai.or.jp\/info_school3","開始日時":" ","終了日時":" ","作成日時":"2024\/09\/06 17:36:36","更新日時":"2024\/10\/02 11:00:06"}},{"type": "Feature", "geometry": {"type":"Point","coordinates":[139.451781406,35.340283149]}, "properties": {"gid":"44","名称":"アスク辻堂保育園","施設種別":"法人立認可保育所","所在地":"神奈川県藤沢市辻堂新町1-14-19","所在地2":" ","電話番号":" 0466-30-0380","ホームページ":" https:\/\/www.nihonhoiku.co.jp\/blog\/tsujido\/","開始日時":" ","終了日時":" ","作成日時":"2024\/09\/06 17:36:36","更新日時":"2024\/10\/02 10:23:38"}},{"type": "Feature", "geometry": {"type":"Point","coordinates":[139.463293137,35.336913579]}, "properties": {"gid":"45","名称":"Gakkenほいくえん藤沢SST","施設種別":"法人立認可保育所","所在地":"神奈川県藤沢市辻堂元町6-17-1","所在地2":" ","電話番号":" 0466-54-7167","ホームページ":" https:\/\/nursery.cocofump.co.jp\/nursery_school\/fujisawa_sst\/","開始日時":" ","終了日時":" ","作成日時":"2024\/09\/06 17:36:36","更新日時":"2024\/09\/06 17:51:19"}},{"type": "Feature", "geometry": {"type":"Point","coordinates":[139.469476715,35.410980903]}, "properties": {"gid":"46","名称":"アスク長後保育園","施設種別":"法人立認可保育所","所在地":"神奈川県藤沢市高倉672-4","所在地2":" ","電話番号":" 0466-46-3251","ホームページ":" https:\/\/www.nihonhoiku.co.jp\/blog\/chogo\/","開始日時":" ","終了日時":" ","作成日時":"2024\/09\/06 17:36:36","更新日時":"2024\/09\/06 17:51:20"}},{"type": "Feature", "geometry": {"type":"Point","coordinates":[139.485406,35.334111]}, "properties": {"gid":"47","名称":"保育園アワーキッズ湘南","施設種別":"法人立認可保育所","所在地":"神奈川県藤沢市鵠沼橘1-6-2","所在地2":" ","電話番号":" 0466-47-3910","ホームページ":" https:\/\/ourkids.jp\/shonan\/","開始日時":" ","終了日時":" ","作成日時":"2024\/09\/06 17:36:36","更新日時":"2024\/09\/06 17:51:21"}},{"type": "Feature", "geometry": {"type":"Point","coordinates":[139.446851331,35.326768621]}, "properties": {"gid":"48","名称":"辻堂すきっぷ保育園","施設種別":"法人立認可保育所","所在地":"神奈川県藤沢市辻堂6-14-5","所在地2":" ","電話番号":" 0466-86-7357","ホームページ":" https:\/\/www.skip-hoikuen.com\/tsujidou\/","開始日時":" ","終了日時":" ","作成日時":"2024\/09\/06 17:36:36","更新日時":"2024\/09\/06 17:51:22"}},{"type": "Feature", "geometry": {"type":"Point","coordinates":[139.445877432,35.388831404]}, "properties": {"gid":"49","名称":"湘南たんぽぽ保育園","施設種別":"法人立認可保育所","所在地":"神奈川県藤沢市石川6-18-46","所在地2":" ","電話番号":" 0466-87-8000","ホームページ":" http:\/\/tanpopo.sunnyday.jp\/","開始日時":" ","終了日時":" ","作成日時":"2024\/09\/06 17:36:36","更新日時":"2024\/09\/06 17:51:23"}},{"type": "Feature", "geometry": {"type":"Point","coordinates":[139.486085228,35.331772274]}, "properties": {"gid":"50","名称":"アスクくげぬま北保育園","施設種別":"法人立認可保育所","所在地":"神奈川県藤沢市鵠沼石上3-1-3","所在地2":" ","電話番号":" 0466-22-0005","ホームページ":" https:\/\/www.nihonhoiku.co.jp\/blog\/kugenumakita\/","開始日時":" ","終了日時":" ","作成日時":"2024\/09\/06 17:36:36","更新日時":"2024\/10\/01 10:58:34"}},{"type": "Feature", "geometry": {"type":"Point","coordinates":[139.447337532,35.328661134]}, "properties": {"gid":"51","名称":"辻堂あいまーる保育園","施設種別":"法人立認可保育所","所在地":"神奈川県藤沢市辻堂6-4-3","所在地2":" ","電話番号":" 0466-33-7800","ホームページ":" https:\/\/harmonie-hoikuen.jp\/tsujidou-aimaru\/","開始日時":" ","終了日時":" ","作成日時":"2024\/09\/06 17:36:36","更新日時":"2024\/10\/02 10:36:05"}},{"type": "Feature", "geometry": {"type":"Point","coordinates":[139.447329262,35.334910577]}, "properties": {"gid":"52","名称":"わかたけ第2保育園","施設種別":"法人立認可保育所","所在地":"神奈川県藤沢市辻堂1-5-5","所在地2":" ","電話番号":" 0466-90-5612","ホームページ":" https:\/\/www.wakatake-hoikuen.ed.jp\/","開始日時":" ","終了日時":" ","作成日時":"2024\/09\/06 17:36:36","更新日時":"2024\/10\/02 10:33:10"}},{"type": "Feature", "geometry": {"type":"Point","coordinates":[139.508708807,35.348017931]}, "properties": {"gid":"53","名称":"グリーンキッズ湘南　村岡","施設種別":"法人立認可保育所","所在地":"神奈川県藤沢市渡内3-8-67","所在地2":" ","電話番号":" 0466-90-5858","ホームページ":" https:\/\/www.kijyu.or.jp\/nursery\/gk-muraoka\/","開始日時":" ","終了日時":" ","作成日時":"2024\/09\/06 17:36:36","更新日時":"2024\/09\/06 17:51:27"}},{"type": "Feature", "geometry": {"type":"Point","coordinates":[139.444126,35.34791]}, "properties": {"gid":"54","名称":"湘南わもっか保育園","施設種別":"法人立認可保育所","所在地":"神奈川県藤沢市城南1-21-17","所在地2":" ","電話番号":" 0466-35-8300","ホームページ":" https:\/\/www.eijyu-kai.com\/","開始日時":" ","終了日時":" ","作成日時":"2024\/09\/06 17:36:36","更新日時":"2024\/09\/06 17:51:28"}},{"type": "Feature", "geometry": {"type":"Point","coordinates":[139.494727825,35.332939666]}, "properties": {"gid":"55","名称":"さくらうみ保育園本園","施設種別":"法人立認可保育所","所在地":"神奈川県藤沢市川名256-13","所在地2":" ナーサリー湘南1F","電話番号":" 0466-52-8331","ホームページ":" https:\/\/sakuraumi.com\/","開始日時":" ","終了日時":" ","作成日時":"2024\/09\/06 17:36:36","更新日時":"2024\/09\/06 17:51:29"}},{"type": "Feature", "geometry": {"type":"Point","coordinates":[139.46640293,35.397472625]}, "properties": {"gid":"56","名称":"湘南台よつば保育園プラス","施設種別":"法人立認可保育所","所在地":"神奈川県藤沢市湘南台1-1-1","所在地2":" 湘南台ダイヤモンドマンション2F","電話番号":" 0466-86-5255","ホームページ":" https:\/\/www.yotsubahoikuen.com\/?page_id=722","開始日時":" ","終了日時":" ","作成日時":"2024\/09\/06 17:36:36","更新日時":"2024\/09\/06 17:51:30"}},{"type": "Feature", "geometry": {"type":"Point","coordinates":[139.46960567,35.32984962]}, "properties": {"gid":"57","名称":"ニチイキッズ湘南鵠沼保育園","施設種別":"法人立認可保育所","所在地":"神奈川県藤沢市本鵠沼3-12-33","所在地2":" ベルプラザ1F","電話番号":" 0466-38-6261","ホームページ":" https:\/\/www.nichiikids.net\/nursery\/other\/syounan\/index.html","開始日時":" ","終了日時":" ","作成日時":"2024\/09\/06 17:36:36","更新日時":"2024\/09\/06 17:51:31"}},{"type": "Feature", "geometry": {"type":"Point","coordinates":[139.478348886,35.346832029]}, "properties": {"gid":"58","名称":"藤沢ひばりっこ保育園","施設種別":"法人立認可保育所","所在地":"神奈川県藤沢市本町4-12-1","所在地2":" CASSIA藤沢本町2F","電話番号":" 0466-47-6627","ホームページ":" https:\/\/www.s-hibari.or.jp\/nursery-school\/hibarikko-hoikuen\/","開始日時":" ","終了日時":" ","作成日時":"2024\/09\/06 17:36:36","更新日時":"2024\/10\/02 11:09:59"}},{"type": "Feature", "geometry": {"type":"Point","coordinates":[139.488021091,35.328304202]}, "properties": {"gid":"59","名称":"ミラッツ湘南鵠沼保育園","施設種別":"法人立認可保育所","所在地":"神奈川県藤沢市鵠沼藤が谷1-1-5","所在地2":" 江ノ電ビル２F","電話番号":" 0466-47-7415","ホームページ":" https:\/\/www.miratz.jp\/operation\/?id=1561470525-687358","開始日時":" ","終了日時":" ","作成日時":"2024\/09\/06 17:36:36","更新日時":"2024\/10\/01 10:56:39"}},{"type": "Feature", "geometry": {"type":"Point","coordinates":[139.466214947,35.394018082]}, "properties": {"gid":"60","名称":"湘南あかね保育園","施設種別":"法人立認可保育所","所在地":"神奈川県藤沢市湘南台2-18-7","所在地2":" 水嶋ハイツ１F","電話番号":" 0466-90-5803","ホームページ":" https:\/\/www.ans.co.jp\/u\/fujisawa\/s_akane.htm","開始日時":" ","終了日時":" ","作成日時":"2024\/09\/06 17:36:36","更新日時":"2024\/09\/06 17:51:34"}},{"type": "Feature", "geometry": {"type":"Point","coordinates":[139.509848726,35.337552337]}, "properties": {"gid":"61","名称":"きっずワン弥勒寺保育園","施設種別":"法人立認可保育所","所在地":"神奈川県藤沢市弥勒寺1-5-1","所在地2":" ","電話番号":" 0466-47-3694","ホームページ":" http:\/\/kidsone.jp\/","開始日時":" ","終了日時":" ","作成日時":"2024\/09\/06 17:36:36","更新日時":"2024\/09\/06 17:51:35"}},{"type": "Feature", "geometry": {"type":"Point","coordinates":[139.473323417,35.364565107]}, "properties": {"gid":"62","名称":"善行・学びの保育園","施設種別":"法人立認可保育所","所在地":"神奈川県藤沢市善行6-1-5","所在地2":" ","電話番号":" 0466-86-5864","ホームページ":" https:\/\/zengyo.manabien.net\/","開始日時":" ","終了日時":" ","作成日時":"2024\/09\/06 17:36:36","更新日時":"2024\/09\/06 17:51:36"}},{"type": "Feature", "geometry": {"type":"Point","coordinates":[139.470320632,35.346257471]}, "properties": {"gid":"63","名称":"藤沢本町雲母保育園","施設種別":"法人立認可保育所","所在地":"神奈川県藤沢市鵠沼神明5-11-13","所在地2":" ","電話番号":" 0466-25-8720","ホームページ":" https:\/\/www.kirara-hoikuen.com\/about\/hoikuen\/fujisawahonmachi\/","開始日時":" ","終了日時":" ","作成日時":"2024\/09\/06 17:36:36","更新日時":"2024\/09\/06 17:51:37"}},{"type": "Feature", "geometry": {"type":"Point","coordinates":[139.449691132,35.341443739]}, "properties": {"gid":"64","名称":"辻堂ももはな保育園","施設種別":"法人立認可保育所","所在地":"神奈川県藤沢市羽鳥1-1-20","所在地2":" ","電話番号":" 0466-53-9451","ホームページ":" http:\/\/www.tomoni.or.jp\/office\/nursery\/","開始日時":" ","終了日時":" ","作成日時":"2024\/09\/06 17:36:36","更新日時":"2024\/09\/06 17:51:38"}},{"type": "Feature", "geometry": {"type":"Point","coordinates":[139.491068437,35.342154447]}, "properties": {"gid":"65","名称":"湘南クレヨン保育園朝日町園","施設種別":"法人立認可保育所","所在地":"神奈川県藤沢市朝日町19-8","所在地2":" ","電話番号":" 0466-21-8800","ホームページ":" https:\/\/crayon1-hoiku.jp\/aboutus.html","開始日時":" ","終了日時":" ","作成日時":"2024\/09\/06 17:36:36","更新日時":"2024\/10\/02 11:36:02"}},{"type": "Feature", "geometry": {"type":"Point","coordinates":[139.483098678,35.340706441]}, "properties": {"gid":"66","名称":"藤沢西保育園","施設種別":"法人立認可保育所","所在地":"神奈川県藤沢市藤沢1022-1","所在地2":" ","電話番号":" 0466-20-1130","ホームページ":" https:\/\/harmonie-hoikuen.jp\/nishi\/","開始日時":" ","終了日時":" ","作成日時":"2024\/09\/06 17:36:36","更新日時":"2024\/09\/06 17:51:41"}},{"type": "Feature", "geometry": {"type":"Point","coordinates":[139.488684271,35.33562221]}, "properties": {"gid":"67","名称":"藤沢クローバー保育園","施設種別":"法人立認可保育所","所在地":"神奈川県藤沢市鵠沼石上1-7-8","所在地2":" ","電話番号":" 0466-52-7625","ホームページ":" https:\/\/clover-hoikuen.jp\/nursery\/fujisawa\/","開始日時":" ","終了日時":" ","作成日時":"2024\/09\/06 17:36:36","更新日時":"2024\/09\/06 17:51:42"}},{"type": "Feature", "geometry": {"type":"Point","coordinates":[139.488767427,35.33344371]}, "properties": {"gid":"68","名称":"藤沢よつば保育園プラス","施設種別":"法人立認可保育所","所在地":"神奈川県藤沢市鵠沼石上2-6-8","所在地2":" ","電話番号":" 0466-20-7700","ホームページ":" https:\/\/www.yotsubahoikuen.com","開始日時":" ","終了日時":" ","作成日時":"2024\/09\/06 17:36:36","更新日時":"2024\/09\/13 18:33:52"}},{"type": "Feature", "geometry": {"type":"Point","coordinates":[139.448343094,35.335915474]}, "properties": {"gid":"69","名称":"ヴィラまなびの森保育園辻堂","施設種別":"法人立認可保育所","所在地":"神奈川県藤沢市辻堂1-4-26","所在地2":" ","電話番号":" 0466-52-5123","ホームページ":" http:\/\/kodomonomori.co.jp\/ft\/","開始日時":" ","終了日時":" ","作成日時":"2024\/09\/06 17:36:36","更新日時":"2024\/10\/02 10:32:02"}},{"type": "Feature", "geometry": {"type":"Point","coordinates":[139.474305353,35.391817521]}, "properties": {"gid":"70","名称":"藤沢湘南台雲母保育園","施設種別":"法人立認可保育所","所在地":"神奈川県藤沢市湘南台7-47-13","所在地2":" ","電話番号":" 0466-41-2511","ホームページ":" https:\/\/www.kirara-hoikuen.com\/","開始日時":" ","終了日時":" ","作成日時":"2024\/09\/06 17:36:36","更新日時":"2024\/09\/06 17:51:45"}},{"type": "Feature", "geometry": {"type":"Point","coordinates":[139.462964,35.401439001]}, "properties": {"gid":"71","名称":"トレジャーキッズしょうなんだい保育園","施設種別":"法人立認可保育所","所在地":"神奈川県藤沢市湘南台4－18－17","所在地2":" ","電話番号":" 0466-47-9610","ホームページ":" https:\/\/www.serio-corp.com\/","開始日時":" ","終了日時":" ","作成日時":"2024\/09\/06 17:36:36","更新日時":"2024\/09\/06 17:51:46"}},{"type": "Feature", "geometry": {"type":"Point","coordinates":[139.462015258,35.397251579]}, "properties": {"gid":"72","名称":"湘南台つぼみ保育園","施設種別":"法人立認可保育所","所在地":"神奈川県藤沢市湘南台4-10-24","所在地2":" ","電話番号":" 53-9868","ホームページ":" https:\/\/issekikai.net\/","開始日時":" ","終了日時":" ","作成日時":"2024\/09\/06 17:36:36","更新日時":"2024\/09\/06 17:51:47"}},{"type": "Feature", "geometry": {"type":"Point","coordinates":[139.443157616,35.347190848]}, "properties": {"gid":"73","名称":"湘南まるめろ保育園","施設種別":"法人立認可保育所","所在地":"神奈川県藤沢市城南1-16-16","所在地2":" ","電話番号":" 0466-36-0500","ホームページ":" https:\/\/eijyu-kai.com\/","開始日時":" ","終了日時":" ","作成日時":"2024\/09\/06 17:36:36","更新日時":"2024\/09\/06 17:51:48"}},{"type": "Feature", "geometry": {"type":"Point","coordinates":[139.4622716,35.333507587]}, "properties": {"gid":"74","名称":"スクルドエンジェル保育園辻堂元町園","施設種別":"法人立認可保育園","所在地":"藤沢市辻堂元町５－１３ー１１","所在地2":" ","電話番号":"0466-52-4367","ホームページ":" ","開始日時":" ","終了日時":" ","作成日時":"2024\/10\/02 10:57:27","更新日時":" "}} ]}
