{"type": "FeatureCollection", "name": "藤沢型認定保育室A型", "crs": {"type":"name", "properties":{ "name":"urn:ogc:def:crs:EPSG::4326" }},"features": [ {"type": "Feature", "geometry": {"type":"Point","coordinates":[139.477416099,35.343634952]}, "properties": {"gid":"0","名称":"キッズサポーター 湘南ぴっころ","施設種別":"藤沢型保育室A型","所在地":"神奈川県藤沢市本町3-3-7","所在地2":" １F","電話番号":" 0466-26-4433","ホームページ":" https:\/\/www.shonanpiccolo.org\/","開始日時":" ","終了日時":" ","作成日時":"2024\/09\/06 17:58:07","更新日時":"2024\/09\/06 17:58:23"}},{"type": "Feature", "geometry": {"type":"Point","coordinates":[139.449552138,35.337410278]}, "properties": {"gid":"1","名称":"保育所きっずらんど辻堂北口園","施設種別":"藤沢型保育室A型","所在地":"神奈川県藤沢市辻堂新町1-2-23","所在地2":" プリメロ湘南２Ｆ?Ｂ","電話番号":" 0466-33-4545","ホームページ":" http:\/\/www.xn--ruqa946cm1ao6riygrlu969ab2bca537lzx2a109a.com\/pop\/history.php","開始日時":" ","終了日時":" ","作成日時":"2024\/09\/06 17:58:07","更新日時":"2024\/10\/02 10:42:13"}},{"type": "Feature", "geometry": {"type":"Point","coordinates":[139.466612917,35.395511898]}, "properties": {"gid":"2","名称":"ちびっこ保育園 湘南台駅前園","施設種別":"藤沢型保育室A型","所在地":"神奈川県藤沢市湘南台2-14-3","所在地2":" パシフィック湘南102・201","電話番号":" 0466-45-0367","ホームページ":" https:\/\/www.chibikko.org\/shonandai\/","開始日時":" ","終了日時":" ","作成日時":"2024\/09\/06 17:58:07","更新日時":"2024\/09\/06 17:58:25"}},{"type": "Feature", "geometry": {"type":"Point","coordinates":[139.466226947,35.393340169]}, "properties": {"gid":"3","名称":"どれみチャイルドくらぶ","施設種別":"藤沢型保育室A型","所在地":"神奈川県藤沢市湘南台2-27-2","所在地2":" ","電話番号":" 0466-44-0194","ホームページ":" https:\/\/www.doremi-child.net\/facilities\/club","開始日時":" ","終了日時":" ","作成日時":"2024\/09\/06 17:58:07","更新日時":"2024\/09\/06 17:58:27"}},{"type": "Feature", "geometry": {"type":"Point","coordinates":[139.482022757,35.3400605]}, "properties": {"gid":"4","名称":"スクルドエンジェル保育園 藤沢駅北口園","施設種別":"藤沢型保育室A型","所在地":"神奈川県藤沢市藤沢1051","所在地2":" TAIKI3BLDG1階","電話番号":" 0466-86-7737","ホームページ":" https:\/\/fujisawaekikitaguchi.skuld-angel.com\/","開始日時":" ","終了日時":" ","作成日時":"2024\/09\/06 17:58:07","更新日時":"2024\/09\/06 17:58:27"}},{"type": "Feature", "geometry": {"type":"Point","coordinates":[139.488931251,35.311110456]}, "properties": {"gid":"5","名称":"のびっこ園片瀬","施設種別":"藤沢型保育室A型","所在地":"神奈川県藤沢市片瀬3-14-31","所在地2":" えのはビル２-A","電話番号":" 0466-47-7113","ホームページ":" https:\/\/nobikkoenkatase.wixsite.com\/home","開始日時":" ","終了日時":" ","作成日時":"2024\/09\/06 17:58:07","更新日時":"2024\/09\/06 17:58:28"}} ]}
