{"type": "FeatureCollection", "name": "藤沢型認定保育室C型", "crs": {"type":"name", "properties":{ "name":"urn:ogc:def:crs:EPSG::4326" }},"features": [ {"type": "Feature", "geometry": {"type":"Point","coordinates":[139.453905811,35.322758289]}, "properties": {"gid":"0","名称":"Mileon Global Kids","施設種別":"藤沢型保育室C型","所在地":"神奈川県藤沢市辻堂西海岸1-10-5","所在地2":" マリンピア西海岸１０１・２０１","電話番号":" 0466-51-0554","ホームページ":" https:\/\/mileon-global-kids.com\/","開始日時":" ","終了日時":" ","作成日時":"2024\/09\/06 17:59:22","更新日時":"2024\/09\/06 17:59:36"}},{"type": "Feature", "geometry": {"type":"Point","coordinates":[139.447926526,35.339972894]}, "properties": {"gid":"1","名称":"キッズ大陸しょうなん辻堂園","施設種別":"藤沢型保育室C型","所在地":"神奈川県藤沢市辻堂神台2-2-1","所在地2":" アイクロス湘南１・３・５階","電話番号":" 0466-31-0531","ホームページ":" https:\/\/www.kidstairiku.jp\/tsujido\/","開始日時":" ","終了日時":" ","作成日時":"2024\/09\/06 17:59:22","更新日時":"2024\/10\/02 10:09:27"}} ]}
