{"type": "FeatureCollection", "name": "認定こども園", "crs": {"type":"name", "properties":{ "name":"urn:ogc:def:crs:EPSG::4326" }},"features": [ {"type": "Feature", "geometry": {"type":"Point","coordinates":[139.464897048,35.402443948]}, "properties": {"gid":"0","名称":"広田幼稚園","施設種別":"認定こども園","所在地":"神奈川県藤沢市湘南台5-28-1","所在地2":" ","電話番号":" 0466-44-6335","ホームページ":" http:\/\/www.hirota.ed.jp\/","開始日時":" ","終了日時":" ","作成日時":"2024\/09\/06 17:37:58","更新日時":"2024\/09\/06 17:38:16"}},{"type": "Feature", "geometry": {"type":"Point","coordinates":[139.48218777,35.366707987]}, "properties": {"gid":"1","名称":"藤沢いずみ幼稚園","施設種別":"認定こども園","所在地":"神奈川県藤沢市亀井野3224","所在地2":" ","電話番号":" 0466-81-2808","ホームページ":" http:\/\/www.fujisawa-izumi.com\/","開始日時":" ","終了日時":" ","作成日時":"2024\/09\/06 17:37:58","更新日時":"2024\/09\/06 17:39:07"}} ]}
